ONEWEB-0283             
1 49001U 21060AL  26001.72800791 -.00000023  00000+0 -92819-4 0  9995
2 49001  87.9043 261.9266 0001573  69.1746 290.9553 13.16593889217712
ONEWEB-0284             
1 49002U 21060AM  26001.72166981 -.00000027  00000+0 -10377-3 0  9994
2 49002  87.9043 261.9175 0001129  78.1870 281.9388 13.16592710217692
ONEWEB-0285             
1 49075U 21075A   26001.55756537 -.00000162  00000+0 -48465-3 0  9992
2 49075  87.8924  23.7515 0001704  91.9486 268.1838 13.12444295213352
ONEWEB-0286             
1 49076U 21075B   26001.61660565 -.00000341  00000+0 -98377-3 0  9991
2 49076  87.8918  23.7718 0001880  96.7654 263.3688 13.12441844212712
ONEWEB-0287             
1 49077U 21075C   26001.63862802  .00000002  00000+0 -28255-4 0  9994
2 49077  87.9101  38.9774 0002017 108.0389 252.0962 13.17647562211699
ONEWEB-0288             
1 49078U 21075D   26001.97422825  .00000400  00000+0  10770-2 0  9991
2 49078  87.8922  23.6637 0001660  95.9671 264.1647 13.12443715213381
ONEWEB-0289             
1 49079U 21075E   26001.60138137  .00000034  00000+0  54259-4 0  9997
2 49079  87.9089  38.9979 0001337  96.3562 263.7722 13.17649317212266
ONEWEB-0290             
1 49080U 21075F   26001.65045680 -.00000062  00000+0 -19219-3 0  9993
2 49080  87.9100  38.9523 0001230  87.2852 272.8421 13.17648464211684
